<ndm xmlns:xsi="http://www.w3.org/2001/XMLSchema-instance" xsi:noNamespaceSchemaLocation="http://sanaregistry.org/r/ndmxml/ndmxml-1.0-master.xsd">
<omm id="CCSDS_OMM_VERS" version="2.0">
<header>
<COMMENT>GENERATED VIA SPACE-TRACK.ORG API</COMMENT>
<CREATION_DATE>2020-11-08T05:03:59</CREATION_DATE>
<ORIGINATOR>18 SPCS</ORIGINATOR>
</header>
<body>
<segment>
<metadata>
<OBJECT_NAME>IRIDIUM 131</OBJECT_NAME>
<OBJECT_ID>2017-083K</OBJECT_ID>
<CENTER_NAME>EARTH</CENTER_NAME>
<REF_FRAME>TEME</REF_FRAME>
<TIME_SYSTEM>UTC</TIME_SYSTEM>
<MEAN_ELEMENT_THEORY>SGP4</MEAN_ELEMENT_THEORY>
</metadata>
<data>
<meanElements>
<EPOCH>2020-11-07T16:37:45.933600</EPOCH>
<MEAN_MOTION>14.34216168</MEAN_MOTION>
<ECCENTRICITY>0.00017990</ECCENTRICITY>
<INCLINATION>86.3947</INCLINATION>
<RA_OF_ASC_NODE>97.7408</RA_OF_ASC_NODE>
<ARG_OF_PERICENTER>94.6182</ARG_OF_PERICENTER>
<MEAN_ANOMALY>265.5219</MEAN_ANOMALY>
</meanElements>
<tleParameters>
<EPHEMERIS_TYPE>0</EPHEMERIS_TYPE>
<CLASSIFICATION_TYPE>U</CLASSIFICATION_TYPE>
<NORAD_CAT_ID>43079</NORAD_CAT_ID>
<ELEMENT_SET_NO>999</ELEMENT_SET_NO>
<REV_AT_EPOCH>15063</REV_AT_EPOCH>
<BSTAR>0.00003194700000</BSTAR>
<MEAN_MOTION_DOT>0.00000109</MEAN_MOTION_DOT>
<MEAN_MOTION_DDOT>0.0000000000000</MEAN_MOTION_DDOT>
</tleParameters>
<userDefinedParameters>
<USER_DEFINED parameter="SEMIMAJOR_AXIS">7155.809</USER_DEFINED>
<USER_DEFINED parameter="PERIOD">100.403</USER_DEFINED>
<USER_DEFINED parameter="APOAPSIS">778.961</USER_DEFINED>
<USER_DEFINED parameter="PERIAPSIS">776.387</USER_DEFINED>
<USER_DEFINED parameter="OBJECT_TYPE">PAYLOAD</USER_DEFINED>
<USER_DEFINED parameter="RCS_SIZE">LARGE</USER_DEFINED>
<USER_DEFINED parameter="COUNTRY_CODE">US</USER_DEFINED>
<USER_DEFINED parameter="LAUNCH_DATE">2017-12-23</USER_DEFINED>
<USER_DEFINED parameter="SITE">AFWTR</USER_DEFINED>
<USER_DEFINED parameter="DECAY_DATE"/>
<USER_DEFINED parameter="DECAYED"/>
<USER_DEFINED parameter="FILE">2875047</USER_DEFINED>
<USER_DEFINED parameter="GP_ID">165126577</USER_DEFINED>
</userDefinedParameters>
</data>
</segment>
</body>
</omm>
<omm id="CCSDS_OMM_VERS" version="2.0">
<header>
<COMMENT>GENERATED VIA SPACE-TRACK.ORG API</COMMENT>
<CREATION_DATE>2020-11-07T22:46:11</CREATION_DATE>
<ORIGINATOR>18 SPCS</ORIGINATOR>
</header>
<body>
<segment>
<metadata>
<OBJECT_NAME>IRIDIUM 144</OBJECT_NAME>
<OBJECT_ID>2018-030A</OBJECT_ID>
<CENTER_NAME>EARTH</CENTER_NAME>
<REF_FRAME>TEME</REF_FRAME>
<TIME_SYSTEM>UTC</TIME_SYSTEM>
<MEAN_ELEMENT_THEORY>SGP4</MEAN_ELEMENT_THEORY>
</metadata>
<data>
<meanElements>
<EPOCH>2020-11-07T19:17:15.681408</EPOCH>
<MEAN_MOTION>14.34219833</MEAN_MOTION>
<ECCENTRICITY>0.00023640</ECCENTRICITY>
<INCLINATION>86.3981</INCLINATION>
<RA_OF_ASC_NODE>66.0359</RA_OF_ASC_NODE>
<ARG_OF_PERICENTER>103.6745</ARG_OF_PERICENTER>
<MEAN_ANOMALY>256.4714</MEAN_ANOMALY>
</meanElements>
<tleParameters>
<EPHEMERIS_TYPE>0</EPHEMERIS_TYPE>
<CLASSIFICATION_TYPE>U</CLASSIFICATION_TYPE>
<NORAD_CAT_ID>43249</NORAD_CAT_ID>
<ELEMENT_SET_NO>999</ELEMENT_SET_NO>
<REV_AT_EPOCH>13670</REV_AT_EPOCH>
<BSTAR>0.00002612800000</BSTAR>
<MEAN_MOTION_DOT>0.00000093</MEAN_MOTION_DOT>
<MEAN_MOTION_DDOT>0.0000000000000</MEAN_MOTION_DDOT>
</tleParameters>
<userDefinedParameters>
<USER_DEFINED parameter="SEMIMAJOR_AXIS">7155.797</USER_DEFINED>
<USER_DEFINED parameter="PERIOD">100.403</USER_DEFINED>
<USER_DEFINED parameter="APOAPSIS">779.353</USER_DEFINED>
<USER_DEFINED parameter="PERIAPSIS">775.970</USER_DEFINED>
<USER_DEFINED parameter="OBJECT_TYPE">PAYLOAD</USER_DEFINED>
<USER_DEFINED parameter="RCS_SIZE">LARGE</USER_DEFINED>
<USER_DEFINED parameter="COUNTRY_CODE">US</USER_DEFINED>
<USER_DEFINED parameter="LAUNCH_DATE">2018-03-30</USER_DEFINED>
<USER_DEFINED parameter="SITE">AFWTR</USER_DEFINED>
<USER_DEFINED parameter="DECAY_DATE"/>
<USER_DEFINED parameter="DECAYED"/>
<USER_DEFINED parameter="FILE">2874981</USER_DEFINED>
<USER_DEFINED parameter="GP_ID">165107437</USER_DEFINED>
</userDefinedParameters>
</data>
</segment>
</body>
</omm>
<omm id="CCSDS_OMM_VERS" version="2.0">
<header>
<COMMENT>GENERATED VIA SPACE-TRACK.ORG API</COMMENT>
<CREATION_DATE>2020-11-07T22:46:11</CREATION_DATE>
<ORIGINATOR>18 SPCS</ORIGINATOR>
</header>
<body>
<segment>
<metadata>
<OBJECT_NAME>IRIDIUM 149</OBJECT_NAME>
<OBJECT_ID>2018-030B</OBJECT_ID>
<CENTER_NAME>EARTH</CENTER_NAME>
<REF_FRAME>TEME</REF_FRAME>
<TIME_SYSTEM>UTC</TIME_SYSTEM>
<MEAN_ELEMENT_THEORY>SGP4</MEAN_ELEMENT_THEORY>
</metadata>
<data>
<meanElements>
<EPOCH>2020-11-07T19:26:23.335584</EPOCH>
<MEAN_MOTION>14.34215947</MEAN_MOTION>
<ECCENTRICITY>0.00024820</ECCENTRICITY>
<INCLINATION>86.3980</INCLINATION>
<RA_OF_ASC_NODE>66.0220</RA_OF_ASC_NODE>
<ARG_OF_PERICENTER>100.9914</ARG_OF_PERICENTER>
<MEAN_ANOMALY>259.1561</MEAN_ANOMALY>
</meanElements>
<tleParameters>
<EPHEMERIS_TYPE>0</EPHEMERIS_TYPE>
<CLASSIFICATION_TYPE>U</CLASSIFICATION_TYPE>
<NORAD_CAT_ID>43250</NORAD_CAT_ID>
<ELEMENT_SET_NO>999</ELEMENT_SET_NO>
<REV_AT_EPOCH>13670</REV_AT_EPOCH>
<BSTAR>0.00002932500000</BSTAR>
<MEAN_MOTION_DOT>0.00000102</MEAN_MOTION_DOT>
<MEAN_MOTION_DDOT>0.0000000000000</MEAN_MOTION_DDOT>
</tleParameters>
<userDefinedParameters>
<USER_DEFINED parameter="SEMIMAJOR_AXIS">7155.810</USER_DEFINED>
<USER_DEFINED parameter="PERIOD">100.403</USER_DEFINED>
<USER_DEFINED parameter="APOAPSIS">779.451</USER_DEFINED>
<USER_DEFINED parameter="PERIAPSIS">775.899</USER_DEFINED>
<USER_DEFINED parameter="OBJECT_TYPE">PAYLOAD</USER_DEFINED>
<USER_DEFINED parameter="RCS_SIZE">LARGE</USER_DEFINED>
<USER_DEFINED parameter="COUNTRY_CODE">US</USER_DEFINED>
<USER_DEFINED parameter="LAUNCH_DATE">2018-03-30</USER_DEFINED>
<USER_DEFINED parameter="SITE">AFWTR</USER_DEFINED>
<USER_DEFINED parameter="DECAY_DATE"/>
<USER_DEFINED parameter="DECAYED"/>
<USER_DEFINED parameter="FILE">2874983</USER_DEFINED>
<USER_DEFINED parameter="GP_ID">165107484</USER_DEFINED>
</userDefinedParameters>
</data>
</segment>
</body>
</omm>
<omm id="CCSDS_OMM_VERS" version="2.0">
<header>
<COMMENT>GENERATED VIA SPACE-TRACK.ORG API</COMMENT>
<CREATION_DATE>2020-11-07T22:46:11</CREATION_DATE>
<ORIGINATOR>18 SPCS</ORIGINATOR>
</header>
<body>
<segment>
<metadata>
<OBJECT_NAME>IRIDIUM 157</OBJECT_NAME>
<OBJECT_ID>2018-030C</OBJECT_ID>
<CENTER_NAME>EARTH</CENTER_NAME>
<REF_FRAME>TEME</REF_FRAME>
<TIME_SYSTEM>UTC</TIME_SYSTEM>
<MEAN_ELEMENT_THEORY>SGP4</MEAN_ELEMENT_THEORY>
</metadata>
<data>
<meanElements>
<EPOCH>2020-11-07T19:53:47.277888</EPOCH>
<MEAN_MOTION>14.34215807</MEAN_MOTION>
<ECCENTRICITY>0.00018140</ECCENTRICITY>
<INCLINATION>86.3983</INCLINATION>
<RA_OF_ASC_NODE>66.0220</RA_OF_ASC_NODE>
<ARG_OF_PERICENTER>85.3130</ARG_OF_PERICENTER>
<MEAN_ANOMALY>274.8273</MEAN_ANOMALY>
</meanElements>
<tleParameters>
<EPHEMERIS_TYPE>0</EPHEMERIS_TYPE>
<CLASSIFICATION_TYPE>U</CLASSIFICATION_TYPE>
<NORAD_CAT_ID>43251</NORAD_CAT_ID>
<ELEMENT_SET_NO>999</ELEMENT_SET_NO>
<REV_AT_EPOCH>13668</REV_AT_EPOCH>
<BSTAR>0.00002778300000</BSTAR>
<MEAN_MOTION_DOT>0.00000098</MEAN_MOTION_DOT>
<MEAN_MOTION_DDOT>0.0000000000000</MEAN_MOTION_DDOT>
</tleParameters>
<userDefinedParameters>
<USER_DEFINED parameter="SEMIMAJOR_AXIS">7155.810</USER_DEFINED>
<USER_DEFINED parameter="PERIOD">100.403</USER_DEFINED>
<USER_DEFINED parameter="APOAPSIS">778.973</USER_DEFINED>
<USER_DEFINED parameter="PERIAPSIS">776.377</USER_DEFINED>
<USER_DEFINED parameter="OBJECT_TYPE">PAYLOAD</USER_DEFINED>
<USER_DEFINED parameter="RCS_SIZE">LARGE</USER_DEFINED>
<USER_DEFINED parameter="COUNTRY_CODE">US</USER_DEFINED>
<USER_DEFINED parameter="LAUNCH_DATE">2018-03-30</USER_DEFINED>
<USER_DEFINED parameter="SITE">AFWTR</USER_DEFINED>
<USER_DEFINED parameter="DECAY_DATE"/>
<USER_DEFINED parameter="DECAYED"/>
<USER_DEFINED parameter="FILE">2874986</USER_DEFINED>
<USER_DEFINED parameter="GP_ID">165107004</USER_DEFINED>
</userDefinedParameters>
</data>
</segment>
</body>
</omm>

</ndm>