IRIDIUM 131             
1 43079U 17083K   20312.69289275  .00000109  00000-0  31947-4 0  9996
2 43079  86.3947  97.7408 0001799  94.6182 265.5219 14.34216168150634
IRIDIUM 144             
1 43249U 18030A   20312.80365372  .00000093  00000-0  26128-4 0  9991
2 43249  86.3981  66.0359 0002364 103.6745 256.4714 14.34219833136703
IRIDIUM 149             
1 43250U 18030B   20312.80999231  .00000102  00000-0  29325-4 0  9993
2 43250  86.3980  66.0220 0002482 100.9914 259.1561 14.34215947136702
IRIDIUM 157             
1 43251U 18030C   20312.82901942  .00000098  00000-0  27783-4 0  9998
2 43251  86.3983  66.0220 0001814  85.3130 274.8273 14.34215807136686
